NORAD_CAT_ID,OBJECT_NAME,OBJECT_TYPE,EPOCH,MEAN_MOTION,ECCENTRICITY,INCLINATION,RA_OF_ASC_NODE,ARG_OF_PERICENTER,MEAN_ANOMALY,BSTAR,MEAN_MOTION_DOT,MEAN_MOTION_DDOT,TLE_LINE0,TLE_LINE1,TLE_LINE2,SEMIMAJOR_AXIS,PERIOD,APOGEE,PERIGEE,DECAYED
55271.0,STARLINK-5306,PAYLOAD,2024-01-15 14:18:52,14.98331939,0.0002581,70.0,221.5387,266.7128,93.3736,2.7072e-05,2.3e-06,0.0,0 STARLINK-5306,1 55271U 23010C   24015.59644327  .00000230  00000-0  27072-4 0  9995,2 55271  70.0000 221.5387 0002581 266.7128  93.3736 14.98331939 55332,6950.187,96.107,573.846,570.258,0.0
55271.0,STARLINK-5306,PAYLOAD,2024-01-15 19:07:16,14.9833171,0.0002589,70.0001,221.0338,266.9284,93.1579,2.2237e-05,1.72e-06,0.0,0 STARLINK-5306,1 55271U 23010C   24015.79672322  .00000172  00000-0  22237-4 0  9996,2 55271  70.0001 221.0338 0002589 266.9284  93.1579 14.98331710 55056,6950.188,96.107,573.852,570.253,0.0
55271.0,STARLINK-5306,PAYLOAD,2024-01-15 20:43:25,14.9833048,0.000262,70.0,220.8655,267.421,92.6649,5.3181e-06,-2.9e-07,0.0,0 STARLINK-5306,1 55271U 23010C   24015.86348438 -.00000029  00000-0  53181-5 0  9997,2 55271  70.0000 220.8655 0002620 267.4210  92.6649 14.98330480 55375,6950.191,96.107,573.877,570.235,0.0
55271.0,STARLINK-5306,PAYLOAD,2024-01-16 14:20:53,14.98334252,0.0002661,69.9998,219.014,268.9139,91.1715,-3.6188e-05,-5.25e-06,0.0,0 STARLINK-5306,1 55271U 23010C   24016.59784227 -.00000525  00000-0 -36188-4 0  9997,2 55271  69.9998 219.0140 0002661 268.9139  91.1715 14.98334252 55489,6950.18,96.107,573.894,570.195,0.0
55271.0,STARLINK-5306,PAYLOAD,2024-01-16 19:09:17,14.983343,0.0002659,69.9999,218.5091,268.8386,91.2468,-3.2551e-05,-4.81e-06,0.0,0 STARLINK-5306,1 55271U 23010C   24016.79812156 -.00000481  00000-0 -32551-4 0  9993,2 55271  69.9999 218.5091 0002659 268.8386  91.2468 14.98334300 55209,6950.18,96.107,573.893,570.197,0.0
55271.0,STARLINK-5306,PAYLOAD,2024-01-16 22:21:33,14.98333175,0.0002677,69.9999,218.1725,268.9648,91.1204,-4.403e-05,-6.18e-06,0.0,0 STARLINK-5306,1 55271U 23010C   24016.93164226 -.00000618  00000-0 -44030-4 0  9994,2 55271  69.9999 218.1725 0002677 268.9648  91.1204 14.98333175 55533,6950.183,96.107,573.909,570.188,0.0
55271.0,STARLINK-5306,PAYLOAD,2024-01-17 14:22:54,14.98328354,0.0002727,69.9999,216.4894,269.4112,90.6735,8.8259e-06,1.2e-07,0.0,0 STARLINK-5306,1 55271U 23010C   24017.59924346  .00000012  00000-0  88259-5 0  9992,2 55271  69.9999 216.4894 0002727 269.4112  90.6735 14.98328354 55636,6950.198,96.107,573.958,570.168,0.0
55271.0,STARLINK-5306,PAYLOAD,2024-01-17 19:11:18,14.98327872,0.0002743,69.9998,215.9845,268.9274,91.157,2.7255e-06,-6e-07,0.0,0 STARLINK-5306,1 55271U 23010C   24017.79952410 -.00000060  00000-0  27255-5 0  9990,2 55271  69.9998 215.9845 0002743 268.9274  91.1570 14.98327872 55352,6950.199,96.107,573.971,570.158,0.0
55271.0,STARLINK-5306,PAYLOAD,2024-01-17 22:23:35,14.98327992,0.0002737,69.9998,215.6478,268.6607,91.4239,3.99e-06,-4.5e-07,0.0,0 STARLINK-5306,1 55271U 23010C   24017.93304409 -.00000045  00000-0  39900-5 0  9998,2 55271  69.9998 215.6478 0002737 268.6607  91.4239 14.98327992 55685,6950.199,96.107,573.966,570.162,0.0
55271.0,STARLINK-5306,PAYLOAD,2024-01-18 14:24:55,14.98331937,0.0002785,69.9997,213.9644,268.6055,91.4785,3.3331e-05,3.05e-06,0.0,0 STARLINK-5306,1 55271U 23010C   24018.60064087  .00000305  00000-0  33331-4 0  9997,2 55271  69.9997 213.9644 0002785 268.6055  91.4785 14.98331937 55781,6950.187,96.107,573.988,570.116,0.0
55271.0,STARLINK-5306,PAYLOAD,2024-01-18 19:13:19,14.98332566,0.0002773,69.9998,213.4595,268.2198,91.8643,4.0285e-05,3.88e-06,0.0,0 STARLINK-5306,1 55271U 23010C   24018.80092003  .00000388  00000-0  40285-4 0  9995,2 55271  69.9998 213.4595 0002773 268.2198  91.8643 14.98332566 55509,6950.185,96.107,573.977,570.123,0.0
55271.0,STARLINK-5306,PAYLOAD,2024-01-18 22:25:35,14.98334075,0.0002801,69.9997,213.1227,268.959,91.1248,5.2891e-05,5.38e-06,0.0,0 STARLINK-5306,1 55271U 23010C   24018.93443842  .00000538  00000-0  52891-4 0  9993,2 55271  69.9997 213.1227 0002801 268.9590  91.1248 14.98334075 55839,6950.18,96.107,573.992,570.099,0.0
55271.0,STARLINK-5306,PAYLOAD,2024-01-19 14:26:56,14.98329381,0.0002806,69.9996,211.4391,269.5155,90.5683,3.2942e-05,3e-06,0.0,0 STARLINK-5306,1 55271U 23010C   24019.60204130  .00000300  00000-0  32942-4 0  9995,2 55271  69.9996 211.4391 0002806 269.5155  90.5683 14.98329381 55931,6950.195,96.107,574.01,570.11,0.0
55271.0,STARLINK-5306,PAYLOAD,2024-01-19 19:15:20,14.98329203,0.0002811,69.9996,210.9341,269.5017,90.582,2.9164e-05,2.55e-06,0.0,0 STARLINK-5306,1 55271U 23010C   24019.80232153  .00000255  00000-0  29164-4 0  9994,2 55271  69.9996 210.9341 0002811 269.5017  90.5820 14.98329203 55658,6950.195,96.107,574.014,570.107,0.0
55271.0,STARLINK-5306,PAYLOAD,2024-01-19 22:27:36,14.98331607,0.00028,69.9997,210.5975,269.4721,90.6118,5.3594e-05,5.47e-06,0.0,0 STARLINK-5306,1 55271U 23010C   24019.93583914  .00000547  00000-0  53594-4 0  9990,2 55271  69.9997 210.5975 0002800 269.4721  90.6118 14.98331607 55985,6950.188,96.107,573.999,570.107,0.0
55271.0,STARLINK-5306,PAYLOAD,2024-01-20 14:28:57,14.9833045,0.0002765,69.9998,208.9143,269.0738,91.0104,-1.7881e-05,-3.06e-06,0.0,0 STARLINK-5306,1 55271U 23010C   24020.60344149 -.00000306  00000-0 -17881-4 0  9995,2 55271  69.9998 208.9143 0002765 269.0738  91.0104 14.98330450 56085,6950.191,96.107,573.978,570.135,0.0
55271.0,STARLINK-5306,PAYLOAD,2024-01-20 19:17:21,14.98330517,0.0002774,69.9998,208.4096,269.3773,90.7068,-1.5903e-05,-2.83e-06,0.0,0 STARLINK-5306,1 55271U 23010C   24020.80372132 -.00000283  00000-0 -15903-4 0  9997,2 55271  69.9998 208.4096 0002774 269.3773  90.7068 14.98330517 55807,6950.191,96.107,573.984,570.128,0.0
55271.0,STARLINK-5306,PAYLOAD,2024-01-20 22:29:37,14.98330981,0.0002764,69.9999,208.0729,269.1533,90.931,-9.6426e-06,-2.08e-06,0.0,0 STARLINK-5306,1 55271U 23010C   24020.93724073 -.00000208  00000-0 -96426-5 0  9993,2 55271  69.9999 208.0729 0002764 269.1533  90.9310 14.98330981 56132,6950.19,96.107,573.976,570.134,0.0
55271.0,STARLINK-5306,PAYLOAD,2024-01-21 19:19:22,14.98332247,0.0002758,70.0,205.885,270.9931,89.0912,2.5779e-05,2.15e-06,0.0,0 STARLINK-5306,1 55271U 23010C   24021.80511829  .00000215  00000-0  25779-4 0  9991,2 55271  70.0000 205.8850 0002758 270.9931  89.0912 14.98332247 55956,6950.186,96.107,573.968,570.134,0.0
55271.0,STARLINK-5306,PAYLOAD,2024-01-21 22:31:38,14.98333071,0.0002776,70.0,205.548,272.6449,87.4392,3.4475e-05,3.18e-06,0.0,0 STARLINK-5306,1 55271U 23010C   24021.93863726  .00000318  00000-0  34475-4 0  9998,2 55271  70.0000 205.5480 0002776 272.6449  87.4392 14.98333071 56282,6950.183,96.107,573.978,570.119,0.0
55271.0,STARLINK-5306,PAYLOAD,2024-01-22 19:21:23,14.98328947,0.0002764,70.0002,203.3602,275.3579,84.7265,2.4864e-05,2.04e-06,0.0,0 STARLINK-5306,1 55271U 23010C   24022.80652009  .00000204  00000-0  24864-4 0  9990,2 55271  70.0002 203.3602 0002764 275.3579  84.7265 14.98328947 56103,6950.196,96.107,573.982,570.14,0.0
55271.0,STARLINK-5306,PAYLOAD,2024-01-22 20:57:31,14.98328873,0.0002764,70.0002,203.1919,275.4546,84.6298,2.2517e-05,1.76e-06,0.0,0 STARLINK-5306,1 55271U 23010C   24022.87328006  .00000176  00000-0  22517-4 0  9995,2 55271  70.0002 203.1919 0002764 275.4546  84.6298 14.98328873 56425,6950.196,96.107,573.982,570.14,0.0
55271.0,STARLINK-5306,PAYLOAD,2024-01-23 20:59:32,14.9833238,0.0002808,70.0003,200.6674,275.5078,84.5761,1.1096e-05,3.9e-07,0.0,0 STARLINK-5306,1 55271U 23010C   24023.87467713  .00000039  00000-0  11096-4 0  9993,2 55271  70.0003 200.6674 0002808 275.5078  84.5761 14.98332380 56574,6950.186,96.107,574.002,570.099,0.0
55271.0,STARLINK-5306,PAYLOAD,2024-01-24 14:37:01,14.98321113,0.0002544,70.0009,198.8172,264.2779,95.809,-4.4556e-05,-6.24e-06,0.0,0 STARLINK-5306,1 55271U 23010C   24024.60904712 -.00000624  00000-0 -44556-4 0  9999,2 55271  70.0009 198.8172 0002544 264.2779  95.8090 14.98321113 56685,6950.22,96.108,573.854,570.317,0.0
55271.0,STARLINK-5306,PAYLOAD,2024-01-24 19:25:26,14.98319934,0.0002582,70.0008,198.312,264.7625,95.324,-5.8762e-05,-7.94e-06,0.0,0 STARLINK-5306,1 55271U 23010C   24024.80932934 -.00000794  00000-0 -58762-4 0  9990,2 55271  70.0008 198.3120 0002582 264.7625  95.3240 14.98319934 56409,6950.224,96.108,573.884,570.294,0.0
55271.0,STARLINK-5306,PAYLOAD,2024-01-24 21:01:34,14.98319681,0.0002588,70.0008,198.1436,265.2616,94.8248,-6.2009e-05,-8.32e-06,0.0,0 STARLINK-5306,1 55271U 23010C   24024.87608987 -.00000832  00000-0 -62009-4 0  9997,2 55271  70.0008 198.1436 0002588 265.2616  94.8248 14.98319681 56725,6950.225,96.108,573.889,570.291,0.0
55271.0,STARLINK-5306,PAYLOAD,2024-01-25 11:26:46,14.98327762,0.000269,70.0005,196.6285,267.7777,92.3074,-2.8951e-06,-1.27e-06,0.0,0 STARLINK-5306,1 55271U 23010C   24025.47692543 -.00000127  00000-0 -28951-5 0  9991,2 55271  70.0005 196.6285 0002690 267.7777  92.3074 14.98327762 56501,6950.2,96.107,573.934,570.195,0.0
55271.0,STARLINK-5306,PAYLOAD,2024-01-25 14:39:02,14.98327842,0.0002685,70.0006,196.2919,264.8063,95.279,-4.7481e-06,-1.5e-06,0.0,0 STARLINK-5306,1 55271U 23010C   24025.61044534 -.00000150  00000-0 -47481-5 0  9993,2 55271  70.0006 196.2919 0002685 264.8063  95.2790 14.98327842 56834,6950.2,96.107,573.931,570.198,0.0
55271.0,STARLINK-5306,PAYLOAD,2024-01-25 21:03:34,14.98326813,0.0002745,70.0004,195.6182,267.2744,92.8101,-1.5711e-05,-2.8e-06,0.0,0 STARLINK-5306,1 55271U 23010C   24025.87748695 -.00000280  00000-0 -15711-4 0  9994,2 55271  70.0004 195.6182 0002745 267.2744  92.8101 14.98326813 56877,6950.203,96.107,573.976,570.16,0.0
55271.0,STARLINK-5306,PAYLOAD,2024-01-26 11:28:47,14.983293,0.0003054,69.9996,194.1027,271.2157,88.8652,0.00011647,1.297e-05,0.0,0 STARLINK-5306,1 55271U 23010C   24026.47832289  .00001297  00000-0  11647-3 0  9994,2 55271  69.9996 194.1027 0003054 271.2157  88.8652 14.98329300 56659,6950.195,96.107,574.183,569.937,0.0
